{"type":"FeatureCollection","features":[{"type":"Feature","properties":{"slug":"stari-grad","name":"Стари-Град","color":"#FC3030"},"geometry":{"type":"Polygon","coordinates":[[[20.44358,44.82559],[20.44453,44.82209],[20.4472,44.81821],[20.44806,44.81531],[20.45748,44.81418],[20.46274,44.80756],[20.46603,44.81028],[20.4749,44.81478],[20.47463,44.81934],[20.47653,44.81923],[20.47839,44.82395],[20.47823,44.82521],[20.4796,44.82649],[20.4787,44.82745],[20.47868,44.82997],[20.46408,44.83296],[20.45211,44.83387],[20.44449,44.82743],[20.44358,44.82559]]]}},{"type":"Feature","properties":{"slug":"vracar","name":"Врачар","color":"#E7B780"},"geometry":{"type":"Polygon","coordinates":[[[20.46261,44.80744],[20.46447,44.80628],[20.46621,44.80305],[20.46537,44.8024],[20.46609,44.80194],[20.46503,44.79525],[20.46626,44.79225],[20.46936,44.79176],[20.47022,44.79029],[20.48401,44.79229],[20.49375,44.79099],[20.4977,44.7914],[20.49576,44.79316],[20.49016,44.79555],[20.48397,44.80036],[20.48178,44.80253],[20.48209,44.80284],[20.47169,44.80724],[20.46661,44.81038],[20.46261,44.80744]]]}},{"type":"Feature","properties":{"slug":"savski-venac","name":"Савски-Венац","color":"#8FD969"},"geometry":{"type":"Polygon","coordinates":[[[20.42479,44.79278],[20.42725,44.78967],[20.42948,44.78835],[20.43035,44.78501],[20.43688,44.78222],[20.4361,44.77696],[20.43698,44.77154],[20.43819,44.77249],[20.43811,44.77381],[20.44004,44.77377],[20.44094,44.77034],[20.44404,44.76828],[20.44556,44.76473],[20.44627,44.76465],[20.44687,44.76308],[20.44767,44.76308],[20.44748,44.76123],[20.44884,44.75858],[20.45248,44.75788],[20.45777,44.75827],[20.46858,44.75454],[20.47076,44.75481],[20.47241,44.7562],[20.47306,44.75778],[20.47299,44.76006],[20.4738,44.76152],[20.46571,44.76981],[20.46725,44.77156],[20.46806,44.77755],[20.4675,44.77886],[20.46828,44.77962],[20.46597,44.78436],[20.46527,44.78752],[20.46682,44.79178],[20.46503,44.79525],[20.46609,44.80194],[20.46537,44.8024],[20.46621,44.80305],[20.46447,44.80628],[20.46261,44.80744],[20.45789,44.81392],[20.44806,44.81531],[20.44826,44.81271],[20.44751,44.81],[20.44359,44.80496],[20.43543,44.79945],[20.42877,44.79676],[20.42564,44.79362],[20.42479,44.79278]]]}},{"type":"Feature","properties":{"slug":"novi-beograd","name":"Нови-Београд","color":"#95CBFB"},"geometry":{"type":"Polygon","coordinates":[[[20.32574,44.83425],[20.33281,44.80983],[20.33672,44.80809],[20.33452,44.80557],[20.33396,44.80581],[20.33533,44.8011],[20.33363,44.80038],[20.33395,44.79634],[20.33556,44.79305],[20.33602,44.78982],[20.33847,44.79079],[20.33824,44.78836],[20.34051,44.78591],[20.34173,44.78723],[20.34745,44.77132],[20.35099,44.76878],[20.3538,44.77109],[20.36025,44.77422],[20.37253,44.78595],[20.3779,44.78912],[20.38692,44.79022],[20.39796,44.79404],[20.41194,44.79672],[20.41986,44.79632],[20.42877,44.79676],[20.43543,44.79945],[20.44181,44.80335],[20.44661,44.80844],[20.44818,44.81225],[20.44772,44.81689],[20.44453,44.82209],[20.44358,44.82559],[20.43964,44.82331],[20.43519,44.82253],[20.42917,44.82336],[20.42755,44.82452],[20.42744,44.82663],[20.42512,44.82514],[20.42201,44.82475],[20.42038,44.82598],[20.41983,44.82821],[20.41696,44.82788],[20.4157,44.83388],[20.41044,44.83335],[20.40963,44.83578],[20.39564,44.83425],[20.3943,44.82976],[20.39048,44.82505],[20.38165,44.82821],[20.37919,44.82766],[20.37758,44.82813],[20.3779,44.82901],[20.37557,44.8299],[20.3651,44.83136],[20.36272,44.83065],[20.36108,44.83198],[20.3585,44.83241],[20.32576,44.83425],[20.32574,44.83425]]]}},{"type":"Feature","properties":{"slug":"zemun","name":"Земун","color":"#F6765E"},"geometry":{"type":"Polygon","coordinates":[[[20.14238,44.81115],[20.15561,44.80923],[20.15871,44.81207],[20.16093,44.81966],[20.17562,44.8193],[20.17767,44.8282],[20.17908,44.83814],[20.18108,44.84557],[20.18505,44.84369],[20.19643,44.8453],[20.21379,44.85934],[20.24007,44.86597],[20.25433,44.87088],[20.261,44.88266],[20.26599,44.88121],[20.27942,44.87542],[20.28583,44.84478],[20.28569,44.83324],[20.32739,44.83426],[20.35311,44.83295],[20.36068,44.83208],[20.36272,44.83065],[20.3651,44.83136],[20.37557,44.8299],[20.3779,44.82901],[20.37758,44.82813],[20.37919,44.82766],[20.38165,44.82821],[20.39048,44.82505],[20.3943,44.82976],[20.39564,44.83425],[20.40963,44.83578],[20.41044,44.83335],[20.4157,44.83388],[20.41696,44.82788],[20.41983,44.82821],[20.42038,44.82598],[20.42151,44.825],[20.42512,44.82514],[20.42744,44.82663],[20.42755,44.82452],[20.42917,44.82336],[20.43519,44.82253],[20.43964,44.82331],[20.44284,44.82489],[20.44617,44.82909],[20.45209,44.83387],[20.4457,44.83563],[20.42879,44.84249],[20.42448,44.84314],[20.41388,44.85266],[20.40295,44.85687],[20.39122,44.85983],[20.37938,44.86551],[20.37172,44.87055],[20.36403,44.87703],[20.36063,44.88069],[20.35589,44.89126],[20.34748,44.90599],[20.34369,44.9104],[20.33907,44.91176],[20.32973,44.92044],[20.31427,44.93267],[20.30593,44.93773],[20.30113,44.94269],[20.29463,44.94025],[20.29627,44.93826],[20.27465,44.93042],[20.27039,44.93457],[20.23353,44.92097],[20.22143,44.91549],[20.22525,44.90701],[20.20146,44.90887],[20.16925,44.90709],[20.17095,44.89371],[20.16957,44.89253],[20.16932,44.89126],[20.16701,44.89026],[20.16697,44.88914],[20.16349,44.88534],[20.16591,44.86926],[20.16011,44.86253],[20.14609,44.85679],[20.14578,44.83011],[20.1424,44.81118],[20.14238,44.81115]]]}},{"type":"Feature","properties":{"slug":"palilula","name":"Палилула","color":"#FFCF49"},"geometry":{"type":"Polygon","coordinates":[[[20.28763,44.96933],[20.28904,44.95809],[20.29493,44.94947],[20.30593,44.93773],[20.31427,44.93267],[20.33255,44.9181],[20.33907,44.91176],[20.34369,44.9104],[20.34748,44.90599],[20.35589,44.89126],[20.36063,44.88069],[20.36403,44.87703],[20.37172,44.87055],[20.37938,44.86551],[20.39122,44.85983],[20.40295,44.85687],[20.41388,44.85266],[20.42448,44.84314],[20.42879,44.84249],[20.4498,44.83439],[20.46408,44.83296],[20.47868,44.82997],[20.4787,44.82745],[20.4796,44.82649],[20.47823,44.82521],[20.47839,44.82395],[20.47653,44.81923],[20.47463,44.81934],[20.4749,44.81478],[20.46661,44.81038],[20.47169,44.80724],[20.47758,44.80472],[20.48647,44.81046],[20.49197,44.81499],[20.50867,44.81115],[20.51224,44.80932],[20.52011,44.8028],[20.52079,44.80311],[20.52299,44.80147],[20.53049,44.8034],[20.53105,44.80289],[20.53351,44.8091],[20.53507,44.80933],[20.5358,44.81165],[20.53802,44.81062],[20.53679,44.80891],[20.54248,44.80731],[20.5424,44.80628],[20.54349,44.80553],[20.5435,44.8023],[20.5461,44.79915],[20.54839,44.79341],[20.55024,44.79095],[20.55361,44.78983],[20.55983,44.79017],[20.56354,44.79217],[20.5653,44.79196],[20.56481,44.79101],[20.56554,44.79065],[20.56932,44.79116],[20.57402,44.78868],[20.57313,44.78814],[20.57465,44.78727],[20.57443,44.78541],[20.57528,44.7864],[20.57777,44.78726],[20.57921,44.78433],[20.5811,44.78511],[20.58232,44.78458],[20.58245,44.78343],[20.58173,44.78261],[20.58525,44.78086],[20.58647,44.78256],[20.58699,44.78539],[20.58832,44.78572],[20.58947,44.78776],[20.59223,44.7887],[20.59224,44.79156],[20.59457,44.79226],[20.59834,44.79546],[20.60232,44.79616],[20.60485,44.79543],[20.60591,44.79654],[20.60671,44.79554],[20.60778,44.79548],[20.60778,44.79604],[20.6089,44.79612],[20.60881,44.79707],[20.61676,44.79634],[20.61826,44.79882],[20.61908,44.79857],[20.62143,44.79995],[20.62942,44.79925],[20.63012,44.80197],[20.62479,44.80895],[20.62143,44.81261],[20.61495,44.81698],[20.6136,44.81943],[20.6137,44.82076],[20.61775,44.82508],[20.61835,44.82741],[20.61742,44.82908],[20.61308,44.8297],[20.60447,44.82758],[20.60098,44.82748],[20.59688,44.82829],[20.59384,44.8301],[20.59119,44.83295],[20.58972,44.83861],[20.58631,44.84271],[20.58261,44.84625],[20.57623,44.84865],[20.58251,44.85209],[20.59539,44.85525],[20.60389,44.85557],[20.62067,44.85434],[20.62128,44.85603],[20.61737,44.85748],[20.60781,44.85951],[20.60247,44.85994],[20.59619,44.86158],[20.59284,44.86099],[20.59119,44.8627],[20.59863,44.86616],[20.60197,44.86707],[20.60517,44.86772],[20.61396,44.86793],[20.61877,44.86797],[20.61886,44.86724],[20.61963,44.86732],[20.61966,44.86784],[20.62148,44.86789],[20.62321,44.86937],[20.61641,44.88152],[20.61427,44.88781],[20.6197,44.89481],[20.61973,44.89775],[20.61842,44.90244],[20.62209,44.9071],[20.62236,44.90846],[20.6167,44.91369],[20.61071,44.91771],[20.60847,44.92086],[20.60182,44.92648],[20.59758,44.93156],[20.59269,44.93485],[20.58811,44.93652],[20.5828,44.93716],[20.57607,44.93559],[20.57497,44.93712],[20.5763,44.93969],[20.57599,44.94087],[20.57422,44.94229],[20.57178,44.94306],[20.56869,44.94228],[20.5675,44.9414],[20.56672,44.93956],[20.55463,44.94091],[20.53461,44.94972],[20.53279,44.95164],[20.53085,44.95642],[20.52006,44.96836],[20.51776,44.97208],[20.51748,44.9732],[20.51814,44.97445],[20.52288,44.9767],[20.52295,44.97779],[20.521,44.98003],[20.51443,44.98386],[20.50761,44.98676],[20.49972,44.98856],[20.48925,44.98945],[20.48805,44.99057],[20.48787,44.99278],[20.48655,44.99374],[20.48439,44.99379],[20.48247,44.99286],[20.48099,44.99317],[20.47688,44.99629],[20.4744,45.00082],[20.46953,45.00732],[20.46355,45.01448],[20.45985,45.01647],[20.45835,45.01907],[20.44922,45.02378],[20.44276,45.02537],[20.44218,45.02643],[20.44253,45.02753],[20.44052,45.02956],[20.43712,45.03164],[20.42807,45.03469],[20.42707,45.03753],[20.42286,45.04134],[20.42162,45.0458],[20.42171,45.04743],[20.42268,45.0484],[20.41599,45.0525],[20.41698,45.06045],[20.41896,45.06375],[20.41724,45.0706],[20.419,45.07361],[20.4218,45.07643],[20.42026,45.07837],[20.42,45.08114],[20.41857,45.08243],[20.40496,45.08865],[20.37683,45.09681],[20.37483,45.0969],[20.37168,45.09609],[20.36161,45.08838],[20.34636,45.07977],[20.34225,45.07873],[20.33844,45.07584],[20.33411,45.07441],[20.34533,45.06604],[20.35782,45.04915],[20.35883,45.04197],[20.36292,45.03078],[20.35944,45.01653],[20.35762,45.01337],[20.35518,45.01139],[20.35093,45.00935],[20.33856,45.00768],[20.32001,45.00303],[20.30778,44.99633],[20.2993,44.99296],[20.29064,44.98676],[20.28985,44.98466],[20.28817,44.97305],[20.28763,44.96933]]]}},{"type":"Feature","properties":{"slug":"vozdovac","name":"Вождовац","color":"#A940A4"},"geometry":{"type":"Polygon","coordinates":[[[20.43556,44.64909],[20.43566,44.647],[20.44299,44.64421],[20.4467,44.64449],[20.44935,44.64582],[20.45288,44.64492],[20.45508,44.64004],[20.46258,44.63412],[20.46895,44.62769],[20.47003,44.62609],[20.46983,44.6231],[20.47137,44.62205],[20.4745,44.62194],[20.47666,44.62117],[20.47912,44.61971],[20.48015,44.61794],[20.4817,44.61692],[20.4824,44.61461],[20.48554,44.61148],[20.48562,44.60995],[20.48848,44.60657],[20.49016,44.60256],[20.4922,44.60009],[20.49234,44.59789],[20.49098,44.59491],[20.49102,44.59242],[20.49181,44.59091],[20.49327,44.59025],[20.49294,44.58682],[20.49516,44.58454],[20.49593,44.58246],[20.49501,44.58016],[20.49576,44.57778],[20.49972,44.57538],[20.50198,44.57626],[20.50506,44.57882],[20.50893,44.5778],[20.51175,44.57897],[20.51334,44.57898],[20.51507,44.58098],[20.51915,44.58252],[20.52024,44.58518],[20.52247,44.58523],[20.52819,44.58787],[20.53931,44.58884],[20.54244,44.58795],[20.54525,44.58799],[20.54917,44.58899],[20.55107,44.59107],[20.55712,44.59352],[20.55839,44.59563],[20.56328,44.59871],[20.55733,44.6054],[20.55667,44.61091],[20.55734,44.61291],[20.55912,44.6143],[20.56327,44.61352],[20.56872,44.61139],[20.57182,44.61178],[20.57792,44.61048],[20.5859,44.61219],[20.59296,44.61501],[20.59567,44.61403],[20.59735,44.61413],[20.60023,44.6158],[20.60649,44.6169],[20.61194,44.62358],[20.61252,44.62569],[20.61045,44.62989],[20.60457,44.63283],[20.60189,44.63633],[20.59525,44.63954],[20.59404,44.64305],[20.58308,44.64225],[20.58196,44.64287],[20.58206,44.64347],[20.58038,44.64341],[20.58063,44.64184],[20.57775,44.63962],[20.57148,44.63792],[20.56256,44.63394],[20.55356,44.63361],[20.55166,44.63497],[20.55103,44.63606],[20.55213,44.63862],[20.55151,44.64291],[20.55445,44.65021],[20.55243,44.65326],[20.55019,44.65493],[20.54976,44.65861],[20.54891,44.66043],[20.54745,44.6617],[20.54415,44.6625],[20.54224,44.66447],[20.54196,44.67062],[20.54071,44.67314],[20.53754,44.6772],[20.53469,44.67879],[20.53243,44.68118],[20.53504,44.68054],[20.53857,44.68108],[20.55258,44.67865],[20.55955,44.67834],[20.56561,44.67941],[20.56787,44.67924],[20.58165,44.68525],[20.58395,44.68563],[20.58383,44.68683],[20.58194,44.68751],[20.58237,44.68819],[20.58152,44.68838],[20.58284,44.69009],[20.58275,44.69201],[20.58157,44.69347],[20.58131,44.69555],[20.58073,44.69566],[20.58116,44.6964],[20.58031,44.69637],[20.58049,44.69677],[20.57706,44.69984],[20.5777,44.70111],[20.57585,44.70146],[20.57586,44.70238],[20.57504,44.70197],[20.57359,44.70412],[20.57258,44.70406],[20.5727,44.70506],[20.57151,44.70434],[20.57149,44.70534],[20.56904,44.70544],[20.56764,44.70661],[20.56715,44.70868],[20.56934,44.71079],[20.56802,44.71162],[20.5689,44.71505],[20.57005,44.71595],[20.56955,44.71648],[20.56643,44.71916],[20.55967,44.72168],[20.55716,44.72359],[20.55219,44.72503],[20.5486,44.72767],[20.54601,44.72998],[20.54626,44.73127],[20.54557,44.73306],[20.54596,44.73449],[20.54461,44.73591],[20.54303,44.73937],[20.53969,44.74007],[20.53296,44.73983],[20.52901,44.74434],[20.5262,44.74605],[20.52225,44.74732],[20.52108,44.74886],[20.52092,44.7503],[20.51768,44.7515],[20.51574,44.75509],[20.51249,44.75592],[20.51424,44.75702],[20.51373,44.75767],[20.51044,44.75824],[20.51128,44.75964],[20.50969,44.76024],[20.50862,44.75955],[20.50889,44.7604],[20.50819,44.76048],[20.50794,44.75936],[20.50689,44.76011],[20.50649,44.75921],[20.50565,44.75963],[20.50625,44.75988],[20.50633,44.76091],[20.50491,44.76337],[20.50553,44.76338],[20.50468,44.76425],[20.50328,44.76382],[20.5015,44.76627],[20.50154,44.7653],[20.50043,44.76632],[20.50247,44.76734],[20.5007,44.76829],[20.50092,44.76899],[20.50368,44.77134],[20.50767,44.77256],[20.50744,44.77317],[20.50951,44.77392],[20.51032,44.77348],[20.51279,44.77667],[20.50932,44.7778],[20.50821,44.77879],[20.50231,44.78034],[20.49979,44.78827],[20.49793,44.79138],[20.49375,44.79099],[20.48401,44.79229],[20.47022,44.79029],[20.46936,44.79176],[20.46665,44.79218],[20.46527,44.78752],[20.46597,44.78436],[20.46828,44.77962],[20.4675,44.77886],[20.46806,44.77755],[20.46725,44.77156],[20.46571,44.76981],[20.47381,44.76148],[20.47299,44.76006],[20.47279,44.75685],[20.47076,44.75481],[20.46839,44.75457],[20.46234,44.75651],[20.46445,44.75551],[20.46726,44.7516],[20.4678,44.74989],[20.46742,44.74491],[20.46859,44.74314],[20.46819,44.74255],[20.46344,44.74187],[20.46369,44.73797],[20.46642,44.73437],[20.46881,44.73591],[20.47151,44.73485],[20.47421,44.732],[20.47411,44.7313],[20.47717,44.72853],[20.48053,44.72747],[20.48489,44.72775],[20.48409,44.72661],[20.47704,44.72347],[20.47529,44.71951],[20.4773,44.71804],[20.47663,44.71662],[20.47874,44.7153],[20.48375,44.71437],[20.48448,44.71319],[20.48611,44.71277],[20.48959,44.70853],[20.49036,44.70627],[20.48776,44.70701],[20.48682,44.70585],[20.4852,44.70589],[20.48021,44.70335],[20.47608,44.70503],[20.47589,44.70408],[20.47513,44.70395],[20.47176,44.70525],[20.46911,44.70532],[20.46744,44.70499],[20.46638,44.7031],[20.46569,44.70334],[20.46465,44.70186],[20.4615,44.70275],[20.46129,44.70208],[20.45865,44.70192],[20.45593,44.69928],[20.45773,44.69776],[20.45713,44.69577],[20.45342,44.69291],[20.45492,44.69156],[20.45452,44.69088],[20.45298,44.69113],[20.45397,44.68883],[20.45715,44.6887],[20.46138,44.68687],[20.46355,44.6868],[20.46791,44.68922],[20.468,44.68667],[20.46897,44.68445],[20.47007,44.68471],[20.47143,44.68397],[20.47231,44.6844],[20.47552,44.68136],[20.48132,44.68012],[20.48102,44.67823],[20.47929,44.6771],[20.47972,44.67625],[20.47914,44.6751],[20.48121,44.67232],[20.47748,44.67121],[20.47683,44.66971],[20.47752,44.66912],[20.47696,44.66829],[20.47747,44.66805],[20.4769,44.66722],[20.46812,44.66389],[20.46821,44.66305],[20.46671,44.66146],[20.46273,44.66153],[20.45777,44.66326],[20.45738,44.66246],[20.45911,44.65818],[20.45811,44.65643],[20.45535,44.6558],[20.45342,44.65437],[20.45123,44.65379],[20.44888,44.65342],[20.4474,44.65391],[20.44392,44.65317],[20.43893,44.65056],[20.43644,44.65033],[20.43563,44.64913],[20.43556,44.64909]]]}},{"type":"Feature","properties":{"slug":"zvezdara","name":"Звездара","color":"#0263FF"},"geometry":{"type":"Polygon","coordinates":[[[20.47747,44.80488],[20.48209,44.80284],[20.48178,44.80253],[20.48397,44.80036],[20.49016,44.79555],[20.49576,44.79316],[20.49793,44.79138],[20.49979,44.78827],[20.50231,44.78034],[20.50821,44.77879],[20.50932,44.7778],[20.51279,44.77667],[20.51032,44.77348],[20.50951,44.77392],[20.50744,44.77317],[20.50767,44.77256],[20.50368,44.77134],[20.50092,44.76899],[20.5007,44.76829],[20.50247,44.76734],[20.50043,44.76632],[20.50154,44.7653],[20.5015,44.76627],[20.50328,44.76382],[20.50468,44.76425],[20.50553,44.76338],[20.50491,44.76337],[20.50633,44.76091],[20.50625,44.75988],[20.50565,44.75963],[20.50649,44.75921],[20.50689,44.76011],[20.50794,44.75936],[20.50819,44.76048],[20.50889,44.7604],[20.50862,44.75955],[20.50969,44.76024],[20.51128,44.75964],[20.51044,44.75824],[20.51373,44.75767],[20.51424,44.75702],[20.51249,44.75592],[20.51574,44.75509],[20.51768,44.7515],[20.52098,44.75032],[20.52115,44.74881],[20.5223,44.74733],[20.52595,44.74622],[20.529,44.74439],[20.53296,44.73983],[20.53969,44.74007],[20.54303,44.73937],[20.54466,44.73593],[20.54603,44.73451],[20.54557,44.73324],[20.54626,44.73127],[20.54601,44.72998],[20.54838,44.7281],[20.54899,44.72964],[20.55138,44.73085],[20.55073,44.73139],[20.55144,44.73258],[20.55108,44.73409],[20.54879,44.73382],[20.5484,44.73456],[20.55036,44.73522],[20.55094,44.74343],[20.54618,44.74676],[20.54166,44.75212],[20.53586,44.75532],[20.53444,44.7587],[20.53489,44.76097],[20.53937,44.76255],[20.5423,44.7672],[20.54494,44.76987],[20.549,44.77088],[20.54952,44.77136],[20.54884,44.77335],[20.55431,44.77056],[20.55889,44.76708],[20.56415,44.76468],[20.56477,44.76492],[20.56728,44.7664],[20.56688,44.76674],[20.56744,44.76785],[20.569,44.76766],[20.56943,44.76927],[20.5711,44.76944],[20.57114,44.77078],[20.57724,44.77111],[20.57989,44.77278],[20.5822,44.77729],[20.58525,44.78086],[20.58173,44.78261],[20.58245,44.78343],[20.58232,44.78458],[20.5811,44.78511],[20.57921,44.78433],[20.57777,44.78726],[20.57528,44.7864],[20.57443,44.78541],[20.57465,44.78727],[20.57313,44.78814],[20.57402,44.78868],[20.56932,44.79116],[20.56554,44.79065],[20.56481,44.79101],[20.5653,44.79196],[20.56354,44.79217],[20.55983,44.79017],[20.55361,44.78983],[20.55024,44.79095],[20.54839,44.79341],[20.5461,44.79915],[20.5435,44.8023],[20.54349,44.80553],[20.5424,44.80628],[20.54248,44.80731],[20.53679,44.80891],[20.53802,44.81062],[20.5358,44.81165],[20.53507,44.80933],[20.53351,44.8091],[20.53105,44.80289],[20.53049,44.8034],[20.52368,44.80155],[20.52298,44.80147],[20.52079,44.80311],[20.52011,44.8028],[20.51224,44.80932],[20.5086,44.81118],[20.49197,44.81499],[20.48647,44.81046],[20.47749,44.80488],[20.47747,44.80488]]]}},{"type":"Feature","properties":{"slug":"rakovica","name":"Раковица","color":"#923545"},"geometry":{"type":"Polygon","coordinates":[[[20.41261,44.74189],[20.41864,44.73658],[20.41967,44.73402],[20.42008,44.72995],[20.41974,44.72743],[20.41635,44.72031],[20.41462,44.71465],[20.41342,44.70242],[20.41921,44.70213],[20.42057,44.70368],[20.42174,44.70349],[20.42131,44.70192],[20.4243,44.69931],[20.42517,44.69763],[20.42794,44.69808],[20.42943,44.69555],[20.43133,44.69407],[20.43584,44.69336],[20.44021,44.69053],[20.44334,44.69015],[20.44521,44.69102],[20.44696,44.6904],[20.44915,44.68808],[20.45355,44.68868],[20.45386,44.68978],[20.45298,44.69113],[20.45452,44.69088],[20.45508,44.69192],[20.45342,44.69291],[20.45713,44.69577],[20.45773,44.69776],[20.45593,44.69928],[20.45865,44.70192],[20.46121,44.70209],[20.46146,44.70279],[20.46466,44.7019],[20.46569,44.70334],[20.46638,44.7031],[20.46744,44.70501],[20.46911,44.70532],[20.47176,44.70525],[20.47513,44.70395],[20.47589,44.70408],[20.47608,44.70503],[20.48021,44.70335],[20.4852,44.70589],[20.48682,44.70585],[20.48776,44.70701],[20.49036,44.70627],[20.48959,44.70853],[20.48611,44.71277],[20.48448,44.71319],[20.48375,44.71437],[20.47874,44.7153],[20.47663,44.71662],[20.4773,44.71804],[20.47529,44.71951],[20.47704,44.72347],[20.48409,44.72661],[20.48489,44.72775],[20.48053,44.72747],[20.47717,44.72853],[20.47411,44.7313],[20.47421,44.732],[20.47137,44.73494],[20.46881,44.73591],[20.46642,44.73437],[20.46415,44.7368],[20.46308,44.74148],[20.46421,44.74228],[20.46819,44.74255],[20.46859,44.74311],[20.46742,44.74491],[20.46776,44.75031],[20.46532,44.75459],[20.46248,44.75666],[20.45812,44.75819],[20.45566,44.7585],[20.45248,44.75788],[20.44884,44.75858],[20.44748,44.76123],[20.44767,44.76308],[20.44687,44.76308],[20.44627,44.76465],[20.44556,44.76473],[20.44404,44.76828],[20.44094,44.77034],[20.44003,44.77378],[20.43806,44.77377],[20.43819,44.77249],[20.43723,44.771],[20.43833,44.76856],[20.43656,44.76697],[20.43517,44.76454],[20.43465,44.76465],[20.43463,44.76695],[20.43384,44.76512],[20.43229,44.76361],[20.43491,44.76169],[20.4331,44.75939],[20.43703,44.75601],[20.43736,44.75461],[20.43686,44.75343],[20.42487,44.7434],[20.4226,44.74382],[20.41926,44.74241],[20.41426,44.74155],[20.41273,44.74185],[20.41261,44.74189]]]}},{"type":"Feature","properties":{"slug":"cukarica","name":"Чукарица","color":"#055E00"},"geometry":{"type":"Polygon","coordinates":[[[20.28757,44.66576],[20.28871,44.66407],[20.2917,44.66325],[20.29483,44.66142],[20.29586,44.66026],[20.30132,44.65719],[20.30176,44.65612],[20.30395,44.65618],[20.30737,44.65462],[20.30943,44.65287],[20.30995,44.65095],[20.31131,44.64943],[20.31362,44.65065],[20.31617,44.65079],[20.32027,44.64515],[20.32041,44.64305],[20.32105,44.64276],[20.32028,44.64189],[20.32135,44.64114],[20.3231,44.64203],[20.32378,44.64144],[20.32202,44.64034],[20.32342,44.63906],[20.32662,44.6407],[20.32799,44.63925],[20.32609,44.63806],[20.32517,44.63862],[20.32439,44.63811],[20.33223,44.63344],[20.33264,44.63279],[20.33156,44.63214],[20.33068,44.62986],[20.33563,44.63153],[20.34243,44.63141],[20.34689,44.63414],[20.35097,44.6376],[20.35452,44.63941],[20.35609,44.63596],[20.36003,44.6316],[20.36049,44.63019],[20.36298,44.63009],[20.36557,44.63103],[20.38122,44.63084],[20.3816,44.63434],[20.37842,44.63882],[20.3793,44.64223],[20.37545,44.64649],[20.38391,44.64922],[20.38444,44.651],[20.38533,44.65159],[20.38722,44.65074],[20.39181,44.64498],[20.39423,44.64412],[20.39772,44.64806],[20.40104,44.64848],[20.4048,44.65003],[20.40182,44.65234],[20.40378,44.65686],[20.40647,44.65898],[20.40867,44.65743],[20.40842,44.6571],[20.4124,44.6529],[20.41199,44.65211],[20.41246,44.6509],[20.41848,44.64879],[20.41389,44.64772],[20.41622,44.64601],[20.41367,44.64564],[20.41273,44.64461],[20.40933,44.6469],[20.40856,44.64607],[20.41047,44.64549],[20.40992,44.64477],[20.41099,44.64443],[20.41165,44.64202],[20.41244,44.64228],[20.41224,44.64131],[20.41504,44.64155],[20.41668,44.64217],[20.41644,44.64276],[20.41724,44.64366],[20.41842,44.64271],[20.42177,44.64483],[20.42353,44.64714],[20.425,44.64797],[20.4299,44.64911],[20.43319,44.64777],[20.43573,44.64919],[20.43644,44.65033],[20.43893,44.65056],[20.44392,44.65317],[20.4474,44.65391],[20.44888,44.65342],[20.45123,44.65379],[20.45804,44.65647],[20.45905,44.65818],[20.45733,44.66246],[20.45773,44.66333],[20.46274,44.66157],[20.46646,44.66143],[20.46758,44.66222],[20.46811,44.66392],[20.47685,44.66725],[20.4774,44.66807],[20.47696,44.66829],[20.47752,44.66912],[20.47683,44.66971],[20.47748,44.67121],[20.48117,44.67232],[20.47908,44.6751],[20.47967,44.67625],[20.47923,44.67711],[20.48096,44.67824],[20.48129,44.68001],[20.47564,44.68118],[20.47234,44.68434],[20.47145,44.68396],[20.47007,44.68471],[20.46887,44.68419],[20.46791,44.68672],[20.46783,44.68918],[20.46354,44.68676],[20.4602,44.68704],[20.45715,44.6887],[20.45247,44.68882],[20.44915,44.68808],[20.44696,44.6904],[20.44521,44.69102],[20.44334,44.69015],[20.44021,44.69053],[20.43584,44.69336],[20.43133,44.69407],[20.42943,44.69555],[20.42794,44.69808],[20.42517,44.69763],[20.4243,44.69931],[20.42131,44.70192],[20.42174,44.70349],[20.42057,44.70368],[20.41921,44.70213],[20.41342,44.70242],[20.41462,44.71465],[20.41635,44.72031],[20.41974,44.72743],[20.42008,44.72995],[20.41967,44.73402],[20.41864,44.73658],[20.41261,44.74189],[20.41426,44.74155],[20.41926,44.74241],[20.4226,44.74382],[20.42487,44.7434],[20.43668,44.75323],[20.43736,44.75461],[20.43703,44.75601],[20.4331,44.75939],[20.43491,44.76169],[20.43229,44.76361],[20.43384,44.76512],[20.43463,44.76695],[20.43465,44.76465],[20.43517,44.76454],[20.43842,44.76887],[20.43698,44.77154],[20.43612,44.77662],[20.43688,44.78222],[20.43035,44.78501],[20.42948,44.78835],[20.42725,44.78967],[20.42479,44.79278],[20.42877,44.79676],[20.41986,44.79632],[20.41194,44.79672],[20.39796,44.79404],[20.38692,44.79022],[20.3779,44.78912],[20.37253,44.78595],[20.36025,44.77422],[20.3538,44.77109],[20.35103,44.76882],[20.3398,44.75587],[20.32201,44.74486],[20.31822,44.74034],[20.31078,44.73444],[20.30808,44.72979],[20.30604,44.71947],[20.30524,44.70635],[20.30608,44.70292],[20.3063,44.69642],[20.30467,44.68674],[20.30271,44.68311],[20.29453,44.67471],[20.28885,44.66682],[20.28757,44.66576]]]}}]}