{"type":"FeatureCollection","features":[{"type":"Feature","properties":{},"geometry":{"type":"MultiPolygon","coordinates":[[[[-180.0,-85.0],[-180.0,85.0],[180.0,85.0],[180.0,-85.0],[-180.0,-85.0]],[[20.58525,44.78086],[20.58647,44.78256],[20.58699,44.78539],[20.58832,44.78572],[20.58947,44.78776],[20.59223,44.7887],[20.59224,44.79156],[20.59457,44.79226],[20.59834,44.79546],[20.60232,44.79616],[20.60485,44.79543],[20.60591,44.79654],[20.60671,44.79554],[20.60778,44.79548],[20.60778,44.79604],[20.6089,44.79612],[20.60881,44.79707],[20.61676,44.79634],[20.61826,44.79882],[20.61908,44.79857],[20.62143,44.79995],[20.62942,44.79925],[20.63012,44.80197],[20.62479,44.80895],[20.62143,44.81261],[20.61495,44.81698],[20.6136,44.81943],[20.6137,44.82076],[20.61775,44.82508],[20.61835,44.82741],[20.61742,44.82908],[20.61308,44.8297],[20.60447,44.82758],[20.60098,44.82748],[20.59688,44.82829],[20.59384,44.8301],[20.59119,44.83295],[20.58972,44.83861],[20.58631,44.84271],[20.58261,44.84625],[20.57623,44.84865],[20.58251,44.85209],[20.59539,44.85525],[20.60389,44.85557],[20.62067,44.85434],[20.62128,44.85603],[20.61737,44.85748],[20.60781,44.85951],[20.60247,44.85994],[20.59619,44.86158],[20.59284,44.86099],[20.59119,44.8627],[20.59863,44.86616],[20.60197,44.86707],[20.60517,44.86772],[20.61396,44.86793],[20.61877,44.86797],[20.61886,44.86724],[20.61963,44.86732],[20.61966,44.86784],[20.62148,44.86789],[20.62321,44.86937],[20.61641,44.88152],[20.61427,44.88781],[20.6197,44.89481],[20.61973,44.89775],[20.61842,44.90244],[20.62209,44.9071],[20.62236,44.90846],[20.6167,44.91369],[20.61071,44.91771],[20.60847,44.92086],[20.60182,44.92648],[20.59758,44.93156],[20.59269,44.93485],[20.58811,44.93652],[20.5828,44.93716],[20.57607,44.93559],[20.57497,44.93712],[20.5763,44.93969],[20.57599,44.94087],[20.57422,44.94229],[20.57178,44.94306],[20.56869,44.94228],[20.5675,44.9414],[20.56672,44.93956],[20.55463,44.94091],[20.53461,44.94972],[20.53279,44.95164],[20.53085,44.95642],[20.52006,44.96836],[20.51776,44.97208],[20.51748,44.9732],[20.51814,44.97445],[20.52288,44.9767],[20.52295,44.97779],[20.521,44.98003],[20.51443,44.98386],[20.50761,44.98676],[20.49972,44.98856],[20.48925,44.98945],[20.48805,44.99057],[20.48787,44.99278],[20.48655,44.99374],[20.48439,44.99379],[20.48247,44.99286],[20.48099,44.99317],[20.47688,44.99629],[20.4744,45.00082],[20.46953,45.00732],[20.46355,45.01448],[20.45985,45.01647],[20.45835,45.01907],[20.44922,45.02378],[20.44276,45.02537],[20.44218,45.02643],[20.44253,45.02753],[20.44052,45.02956],[20.43712,45.03164],[20.42807,45.03469],[20.42707,45.03753],[20.42286,45.04134],[20.42162,45.0458],[20.42171,45.04743],[20.42268,45.0484],[20.41599,45.0525],[20.41698,45.06045],[20.41896,45.06375],[20.41724,45.0706],[20.419,45.07361],[20.4218,45.07643],[20.42026,45.07837],[20.42,45.08114],[20.41857,45.08243],[20.40496,45.08865],[20.37683,45.09681],[20.37483,45.0969],[20.37168,45.09609],[20.36161,45.08838],[20.34636,45.07977],[20.34225,45.07873],[20.33844,45.07584],[20.33411,45.07441],[20.34533,45.06604],[20.35782,45.04915],[20.35883,45.04197],[20.36292,45.03078],[20.35944,45.01653],[20.35762,45.01337],[20.35518,45.01139],[20.35093,45.00935],[20.33856,45.00768],[20.32001,45.00303],[20.30778,44.99633],[20.2993,44.99296],[20.29064,44.98676],[20.28985,44.98466],[20.28817,44.97305],[20.28763,44.96933],[20.28904,44.95809],[20.29493,44.94947],[20.30593,44.93773],[20.30113,44.94269],[20.29463,44.94025],[20.29627,44.93826],[20.27465,44.93042],[20.27039,44.93457],[20.23353,44.92097],[20.22143,44.91549],[20.22525,44.90701],[20.20146,44.90887],[20.16925,44.90709],[20.17095,44.89371],[20.16957,44.89253],[20.16932,44.89126],[20.16701,44.89026],[20.16697,44.88914],[20.16349,44.88534],[20.16591,44.86926],[20.16011,44.86253],[20.14609,44.85679],[20.14578,44.83011],[20.1424,44.81118],[20.14238,44.81115],[20.15561,44.80923],[20.15871,44.81207],[20.16093,44.81966],[20.17562,44.8193],[20.17767,44.8282],[20.17908,44.83814],[20.18108,44.84557],[20.18505,44.84369],[20.19643,44.8453],[20.21379,44.85934],[20.24007,44.86597],[20.25433,44.87088],[20.261,44.88266],[20.26599,44.88121],[20.27942,44.87542],[20.28583,44.84478],[20.28569,44.83324],[20.32574872783843,44.834219853774464],[20.33281,44.80983],[20.33672,44.80809],[20.33452,44.80557],[20.33396,44.80581],[20.33533,44.8011],[20.33363,44.80038],[20.33395,44.79634],[20.33556,44.79305],[20.33602,44.78982],[20.33847,44.79079],[20.33824,44.78836],[20.34051,44.78591],[20.34173,44.78723],[20.34745,44.77132],[20.35099,44.76878],[20.351008503474294,44.768795211041144],[20.3398,44.75587],[20.32201,44.74486],[20.31822,44.74034],[20.31078,44.73444],[20.30808,44.72979],[20.30604,44.71947],[20.30524,44.70635],[20.30608,44.70292],[20.3063,44.69642],[20.30467,44.68674],[20.30271,44.68311],[20.29453,44.67471],[20.28885,44.66682],[20.28757,44.66576],[20.28871,44.66407],[20.2917,44.66325],[20.29483,44.66142],[20.29586,44.66026],[20.30132,44.65719],[20.30176,44.65612],[20.30395,44.65618],[20.30737,44.65462],[20.30943,44.65287],[20.30995,44.65095],[20.31131,44.64943],[20.31362,44.65065],[20.31617,44.65079],[20.32027,44.64515],[20.32041,44.64305],[20.32105,44.64276],[20.32028,44.64189],[20.32135,44.64114],[20.3231,44.64203],[20.32378,44.64144],[20.32202,44.64034],[20.32342,44.63906],[20.32662,44.6407],[20.32799,44.63925],[20.32609,44.63806],[20.32517,44.63862],[20.32439,44.63811],[20.33223,44.63344],[20.33264,44.63279],[20.33156,44.63214],[20.33068,44.62986],[20.33563,44.63153],[20.34243,44.63141],[20.34689,44.63414],[20.35097,44.6376],[20.35452,44.63941],[20.35609,44.63596],[20.36003,44.6316],[20.36049,44.63019],[20.36298,44.63009],[20.36557,44.63103],[20.38122,44.63084],[20.3816,44.63434],[20.37842,44.63882],[20.3793,44.64223],[20.37545,44.64649],[20.38391,44.64922],[20.38444,44.651],[20.38533,44.65159],[20.38722,44.65074],[20.39181,44.64498],[20.39423,44.64412],[20.39772,44.64806],[20.40104,44.64848],[20.4048,44.65003],[20.40182,44.65234],[20.40378,44.65686],[20.40647,44.65898],[20.40867,44.65743],[20.40842,44.6571],[20.4124,44.6529],[20.41199,44.65211],[20.41246,44.6509],[20.41848,44.64879],[20.41389,44.64772],[20.41622,44.64601],[20.41367,44.64564],[20.41273,44.64461],[20.40933,44.6469],[20.40856,44.64607],[20.41047,44.64549],[20.40992,44.64477],[20.41099,44.64443],[20.41165,44.64202],[20.41244,44.64228],[20.41224,44.64131],[20.41504,44.64155],[20.41668,44.64217],[20.41644,44.64276],[20.41724,44.64366],[20.41842,44.64271],[20.42177,44.64483],[20.42353,44.64714],[20.425,44.64797],[20.4299,44.64911],[20.43319,44.64777],[20.4356344388239,44.6491365760354],[20.43563,44.64913],[20.43556,44.64909],[20.43566,44.647],[20.44299,44.64421],[20.4467,44.64449],[20.44935,44.64582],[20.45288,44.64492],[20.45508,44.64004],[20.46258,44.63412],[20.46895,44.62769],[20.47003,44.62609],[20.46983,44.6231],[20.47137,44.62205],[20.4745,44.62194],[20.47666,44.62117],[20.47912,44.61971],[20.48015,44.61794],[20.4817,44.61692],[20.4824,44.61461],[20.48554,44.61148],[20.48562,44.60995],[20.48848,44.60657],[20.49016,44.60256],[20.4922,44.60009],[20.49234,44.59789],[20.49098,44.59491],[20.49102,44.59242],[20.49181,44.59091],[20.49327,44.59025],[20.49294,44.58682],[20.49516,44.58454],[20.49593,44.58246],[20.49501,44.58016],[20.49576,44.57778],[20.49972,44.57538],[20.50198,44.57626],[20.50506,44.57882],[20.50893,44.5778],[20.51175,44.57897],[20.51334,44.57898],[20.51507,44.58098],[20.51915,44.58252],[20.52024,44.58518],[20.52247,44.58523],[20.52819,44.58787],[20.53931,44.58884],[20.54244,44.58795],[20.54525,44.58799],[20.54917,44.58899],[20.55107,44.59107],[20.55712,44.59352],[20.55839,44.59563],[20.56328,44.59871],[20.55733,44.6054],[20.55667,44.61091],[20.55734,44.61291],[20.55912,44.6143],[20.56327,44.61352],[20.56872,44.61139],[20.57182,44.61178],[20.57792,44.61048],[20.5859,44.61219],[20.59296,44.61501],[20.59567,44.61403],[20.59735,44.61413],[20.60023,44.6158],[20.60649,44.6169],[20.61194,44.62358],[20.61252,44.62569],[20.61045,44.62989],[20.60457,44.63283],[20.60189,44.63633],[20.59525,44.63954],[20.59404,44.64305],[20.58308,44.64225],[20.58196,44.64287],[20.58206,44.64347],[20.58038,44.64341],[20.58063,44.64184],[20.57775,44.63962],[20.57148,44.63792],[20.56256,44.63394],[20.55356,44.63361],[20.55166,44.63497],[20.55103,44.63606],[20.55213,44.63862],[20.55151,44.64291],[20.55445,44.65021],[20.55243,44.65326],[20.55019,44.65493],[20.54976,44.65861],[20.54891,44.66043],[20.54745,44.6617],[20.54415,44.6625],[20.54224,44.66447],[20.54196,44.67062],[20.54071,44.67314],[20.53754,44.6772],[20.53469,44.67879],[20.53243,44.68118],[20.53504,44.68054],[20.53857,44.68108],[20.55258,44.67865],[20.55955,44.67834],[20.56561,44.67941],[20.56787,44.67924],[20.58165,44.68525],[20.58395,44.68563],[20.58383,44.68683],[20.58194,44.68751],[20.58237,44.68819],[20.58152,44.68838],[20.58284,44.69009],[20.58275,44.69201],[20.58157,44.69347],[20.58131,44.69555],[20.58073,44.69566],[20.58116,44.6964],[20.58031,44.69637],[20.58049,44.69677],[20.57706,44.69984],[20.5777,44.70111],[20.57585,44.70146],[20.57586,44.70238],[20.57504,44.70197],[20.57359,44.70412],[20.57258,44.70406],[20.5727,44.70506],[20.57151,44.70434],[20.57149,44.70534],[20.56904,44.70544],[20.56764,44.70661],[20.56715,44.70868],[20.56934,44.71079],[20.56802,44.71162],[20.5689,44.71505],[20.57005,44.71595],[20.56955,44.71648],[20.56643,44.71916],[20.55967,44.72168],[20.55716,44.72359],[20.55219,44.72503],[20.5486,44.72767],[20.54601,44.72998],[20.54838,44.7281],[20.54899,44.72964],[20.55138,44.73085],[20.55073,44.73139],[20.55144,44.73258],[20.55108,44.73409],[20.54879,44.73382],[20.5484,44.73456],[20.55036,44.73522],[20.55094,44.74343],[20.54618,44.74676],[20.54166,44.75212],[20.53586,44.75532],[20.53444,44.7587],[20.53489,44.76097],[20.53937,44.76255],[20.5423,44.7672],[20.54494,44.76987],[20.549,44.77088],[20.54952,44.77136],[20.54884,44.77335],[20.55431,44.77056],[20.55889,44.76708],[20.56415,44.76468],[20.56477,44.76492],[20.56728,44.7664],[20.56688,44.76674],[20.56744,44.76785],[20.569,44.76766],[20.56943,44.76927],[20.5711,44.76944],[20.57114,44.77078],[20.57724,44.77111],[20.57989,44.77278],[20.5822,44.77729],[20.58525,44.78086]]],[[[20.54557,44.73306],[20.5455976,44.733161200000005],[20.54626,44.73127],[20.54557,44.73306]]],[[[20.54461,44.73591],[20.54303,44.73937],[20.54466,44.73593],[20.54603,44.73451],[20.545768720000005,44.733788640000014],[20.54596,44.73449],[20.54461,44.73591]]],[[[20.52092,44.7503],[20.51768,44.7515],[20.52098,44.75032],[20.52115,44.74881],[20.5223,44.74733],[20.52595,44.74622],[20.529,44.74439],[20.53296,44.73983],[20.52901,44.74434],[20.5262,44.74605],[20.52225,44.74732],[20.52108,44.74886],[20.52092,44.7503]]],[[[20.522997989347537,44.80147205592544],[20.53049,44.8034],[20.52368,44.80155],[20.522997989347537,44.80147205592544]]],[[[20.52079,44.80311],[20.522988670694865,44.80147099093656],[20.52298,44.80147],[20.52079,44.80311]]],[[[20.50864947250124,44.81115472009552],[20.50867,44.81115],[20.51224,44.80932],[20.50864947250124,44.81115472009552]]],[[[20.49375,44.79099],[20.4977,44.7914],[20.49576,44.79316],[20.49793,44.79138],[20.49375,44.79099]]],[[[20.48209,44.80284],[20.47760627089827,44.80473696231227],[20.477682488713317,44.8047861738149],[20.48209,44.80284]]],[[[20.47914,44.6751],[20.48121,44.67232],[20.47748,44.67121],[20.48117,44.67232],[20.47908,44.6751],[20.47967,44.67625],[20.47923,44.67711],[20.48096,44.67824],[20.48129,44.68001],[20.47564,44.68118],[20.47234,44.68434],[20.47145,44.68396],[20.471430842508376,44.68397041168023],[20.47231,44.6844],[20.47552,44.68136],[20.48132,44.68012],[20.48102,44.67823],[20.47929,44.6771],[20.47972,44.67625],[20.47914,44.6751]]],[[[20.46812,44.66389],[20.46821,44.66305],[20.46765552802671,44.66246225970831],[20.46811,44.66392],[20.47685,44.66725],[20.4774,44.66807],[20.47696,44.66829],[20.47747,44.66805],[20.4769,44.66722],[20.46812,44.66389]]],[[[20.460129272829764,44.81084574408117],[20.46274,44.80756],[20.46603,44.81028],[20.4749,44.81478],[20.46661,44.81038],[20.46261,44.80744],[20.460129272829764,44.81084574408117]]],[[[20.47151,44.73485],[20.47421,44.732],[20.471424522282653,44.734883557918664],[20.47151,44.73485]]],[[[20.47381,44.76148],[20.47299,44.76006],[20.473789502834716,44.76150107918356],[20.47381,44.76148]]],[[[20.47279,44.75685],[20.472598048793454,44.75665710322101],[20.472810096018073,44.757172541090085],[20.47279,44.75685]]],[[[20.468,44.68667],[20.46897,44.68445],[20.47007,44.68471],[20.46887,44.68419],[20.46791,44.68672],[20.467830140669644,44.68917567440838],[20.46791,44.68922],[20.468,44.68667]]],[[[20.46665,44.79218],[20.466636746534654,44.79213524554455],[20.466605741353654,44.79219535056023],[20.46936,44.79176],[20.46665,44.79218]]],[[[20.46744,44.70499],[20.46638,44.7031],[20.46744,44.70501],[20.46911,44.70532],[20.46744,44.70499]]],[[[20.467744601132267,44.75006542974782],[20.4678,44.74989],[20.46742,44.74491],[20.467744601132267,44.75006542974782]]],[[[20.46859,44.74314],[20.46858004467135,44.74312531589023],[20.46742,44.74491],[20.46859,44.74314]]],[[[20.46839,44.75457],[20.46295742967535,44.75631201428592],[20.462519574659467,44.75663115508975],[20.468469673619303,44.75457806821461],[20.46839,44.75457]]],[[[20.46819,44.74255],[20.463679254848923,44.741904251220475],[20.46421,44.74228],[20.46819,44.74255]]],[[[20.46726,44.7516],[20.467552340425534,44.75067425531914],[20.46612126287,44.75318450611328],[20.46726,44.7516]]],[[[20.462758164794046,44.68682554307116],[20.46355,44.6868],[20.467343766233544,44.68890571428559],[20.46354,44.68676],[20.462758164794046,44.68682554307116]]],[[[20.467122638469284,44.66189739677744],[20.46671,44.66146],[20.466507578973495,44.661463560168805],[20.467122638469284,44.66189739677744]]],[[[20.463965587938688,44.737606587333595],[20.46642,44.73437],[20.46415,44.7368],[20.463965587938688,44.737606587333595]]],[[[20.46129,44.70208],[20.45865,44.70192],[20.46121,44.70209],[20.46146,44.70279],[20.46466,44.7019],[20.46569,44.70334],[20.46465,44.70186],[20.4615,44.70275],[20.46129,44.70208]]],[[[20.46445,44.75551],[20.464881461505005,44.754909638973466],[20.463328635203233,44.75604145251032],[20.46445,44.75551]]],[[[20.45911,44.65818],[20.45811,44.65643],[20.457701308546604,44.656336711733466],[20.45804,44.65647],[20.45905,44.65818],[20.45733,44.66246],[20.45773,44.66333],[20.46274,44.66157],[20.464744137466397,44.66149457547169],[20.46273,44.66153],[20.45777,44.66326],[20.45738,44.66246],[20.45911,44.65818]]],[[[20.46408,44.83296],[20.45211,44.83387],[20.44559286055233,44.82836207637231],[20.44617,44.82909],[20.45209,44.83387],[20.450431726466224,44.83432673887628],[20.46408,44.83296]]],[[[20.46344828630345,44.74174073366616],[20.463614999999997,44.73914000000001],[20.46308,44.74148],[20.46344828630345,44.74174073366616]]],[[[20.453581423281648,44.68879150196714],[20.45374172863485,44.689360327413986],[20.45397,44.68883],[20.45715,44.6887],[20.453581423281648,44.68879150196714]]],[[[20.46117621697308,44.68695816145136],[20.4602,44.68704],[20.45715,44.6887],[20.46117621697308,44.68695816145136]]],[[[20.45777,44.75827],[20.457933875049378,44.7582134547702],[20.457590295079424,44.75825675143308],[20.45777,44.75827]]],[[[20.44826,44.81271],[20.448167523378327,44.81237585114035],[20.44778455654269,44.8162388209607],[20.44806,44.81531],[20.44826,44.81271]]],[[[20.45748,44.81418],[20.457660838907817,44.81395240426431],[20.44806,44.81531],[20.45748,44.81418]]],[[[20.45492,44.69156],[20.45452,44.69088],[20.454897202072537,44.69158051813472],[20.45492,44.69156]]],[[[20.454231327887165,44.65497113931536],[20.45342,44.65437],[20.45123,44.65379],[20.454231327887165,44.65497113931536]]],[[[20.42879,44.84249],[20.448794230857697,44.83477775488114],[20.4457,44.83563],[20.42879,44.84249]]],[[[20.44696306220096,44.80929679425838],[20.448035944746636,44.811900413684505],[20.44751,44.81],[20.44696306220096,44.80929679425838]]],[[[20.447471154634858,44.81729564134757],[20.44453,44.82209],[20.4472,44.81821],[20.447471154634858,44.81729564134757]]],[[[20.442869433662107,44.80447344111253],[20.44482188903566,44.80654385733156],[20.44359,44.80496],[20.442869433662107,44.80447344111253]]],[[[20.44358,44.82559],[20.443238160257263,44.82539218410826],[20.443886728266534,44.82621019781365],[20.44358,44.82559]]],[[[20.44004,44.77377],[20.44094,44.77034],[20.440032604804024,44.77377015326831],[20.44004,44.77377]]],[[[20.43811,44.77381],[20.439650458715484,44.773778073394496],[20.43811240811933,44.773770266031065],[20.43811,44.77381]]],[[[20.43789200192262,44.76816654409998],[20.438276460253682,44.76867876089183],[20.43833,44.76856],[20.43789200192262,44.76816654409998]]],[[[20.43612,44.77662],[20.436136027942347,44.776738100627824],[20.43698,44.77154],[20.43612,44.77662]]],[[[20.43819,44.77249],[20.43725244648318,44.77103483881244],[20.43698,44.77154],[20.43819,44.77249]]],[[[20.43672143288984,44.753314084394084],[20.43736,44.75461],[20.43686,44.75343],[20.43672143288984,44.753314084394084]]],[[[20.42479,44.79278],[20.42877,44.79676],[20.42564,44.79362],[20.42479,44.79278]]],[[[20.42201,44.82475],[20.421670453036306,44.82500622255543],[20.42512,44.82514],[20.42201,44.82475]]],[[[20.41261,44.74189],[20.41426,44.74155],[20.41273,44.74185],[20.41261,44.74189]]],[[[20.360742385321092,44.83203626911315],[20.360035744680943,44.83215404255318],[20.36068,44.83208],[20.360742385321092,44.83203626911315]]],[[[20.357146986602448,44.83248603984886],[20.32613032244,44.83422918774314],[20.32739,44.83426],[20.35311,44.83295],[20.357146986602448,44.83248603984886]]],[[[20.33042793824655,44.91979138073019],[20.33255,44.9181],[20.33907,44.91176],[20.33042793824655,44.91979138073019]]]]}}]}